{"type": "FeatureCollection", "features": [ {"type": "Feature", "properties": {"norad_id": 28649, "name": "IRS-P5 (CARTOSAT-1)", "group": "resource", "lat": -50.28787036513965, "lon": 36.58201721838888, "alt_km": 603.6482747635264, "timestamp": "2025-12-27T15:27:10.799750+00:00", "meta": {"OBJECT_NAME": "IRS-P5 (CARTOSAT-1)", "OBJECT_ID": "2005-017A", "EPOCH": "2025-12-27T01:10:47.096544", "MEAN_MOTION": 14.90453087, "ECCENTRICITY": 4.68e-05, "INCLINATION": 97.5482, "RA_OF_ASC_NODE": 26.8273, "ARG_OF_PERICENTER": 77.8552, "MEAN_ANOMALY": 282.2719, "EPHEMERIS_TYPE": 0, "CLASSIFICATION_TYPE": "U", "NORAD_CAT_ID": 28649, "ELEMENT_SET_NO": 999, "REV_AT_EPOCH": 11817, "BSTAR": 0.00019183665, "MEAN_MOTION_DOT": 1.818e-05, "MEAN_MOTION_DDOT": 0}, "tle": {"line1": "1 28649U 05017A   25361.04915621  .00001818  00000+0  19184-3 0  9990", "line2": "2 28649  97.5482  26.8273 0000468  77.8552 282.2719 14.90453087118176"}}, "geometry": {"type": "Point", "coordinates": [36.58201721838888, -50.28787036513965]}}, {"type": "Feature", "properties": {"norad_id": 28893, "name": "SINAH 1", "group": "resource", "lat": -34.0283076093911, "lon": 135.87154197620535, "alt_km": 693.3617671352413, "timestamp": "2025-12-27T15:27:10.799761+00:00", "meta": {"OBJECT_NAME": "SINAH 1", "OBJECT_ID": "2005-043D", "EPOCH": "2025-12-27T07:24:30.335616", "MEAN_MOTION": 14.63978019, "ECCENTRICITY": 0.00157294, "INCLINATION": 98.261, "RA_OF_ASC_NODE": 129.9057, "ARG_OF_PERICENTER": 94.5733, "MEAN_ANOMALY": 265.7266, "EPHEMERIS_TYPE": 0, "CLASSIFICATION_TYPE": "U", "NORAD_CAT_ID": 28893, "ELEMENT_SET_NO": 999, "REV_AT_EPOCH": 7537, "BSTAR": 0.00011526509, "MEAN_MOTION_DOT": 5.56e-06, "MEAN_MOTION_DDOT": 0}, "tle": {"line1": "1 28893U 05043D   25361.30868444  .00000556  00000+0  11527-3 0  9990", "line2": "2 28893  98.2610 129.9057 0015729  94.5733 265.7266 14.63978019 75370"}}, "geometry": {"type": "Point", "coordinates": [135.87154197620535, -34.0283076093911]}}, {"type": "Feature", "properties": {"norad_id": 29079, "name": "EROS B", "group": "resource", "lat": -68.34605198726665, "lon": 137.93842403509458, "alt_km": 353.27626228090594, "timestamp": "2025-12-27T15:27:10.799772+00:00", "meta": {"OBJECT_NAME": "EROS B", "OBJECT_ID": "2006-014A", "EPOCH": "2025-12-27T08:06:57.203712", "MEAN_MOTION": 15.73281478, "ECCENTRICITY": 0.00050448, "INCLINATION": 97.3443, "RA_OF_ASC_NODE": 118.6576, "ARG_OF_PERICENTER": 313.422, "MEAN_ANOMALY": 46.6623, "EPHEMERIS_TYPE": 0, "CLASSIFICATION_TYPE": "U", "NORAD_CAT_ID": 29079, "ELEMENT_SET_NO": 999, "REV_AT_EPOCH": 9309, "BSTAR": 0.0015121188, "MEAN_MOTION_DOT": 0.00213092, "MEAN_MOTION_DDOT": 0}, "tle": {"line1": "1 29079U 06014A   25361.33816208  .00213092  00000+0  15121-2 0  9994", "line2": "2 29079  97.3443 118.6576 0005044 313.4220  46.6623 15.73281478 93095"}}, "geometry": {"type": "Point", "coordinates": [137.93842403509458, -68.34605198726665]}}, {"type": "Feature", "properties": {"norad_id": 29228, "name": "RESURS-DK 1", "group": "resource", "lat": -18.195593674985012, "lon": 56.41807346944854, "alt_km": 534.2381733450775, "timestamp": "2025-12-27T15:27:10.799783+00:00", "meta": {"OBJECT_NAME": "RESURS-DK 1", "OBJECT_ID": "2006-021A", "EPOCH": "2025-12-27T07:36:04.257216", "MEAN_MOTION": 15.12243621, "ECCENTRICITY": 0.00069834, "INCLINATION": 69.9337, "RA_OF_ASC_NODE": 64.164, "ARG_OF_PERICENTER": 246.1035, "MEAN_ANOMALY": 113.94, "EPHEMERIS_TYPE": 0, "CLASSIFICATION_TYPE": "U", "NORAD_CAT_ID": 29228, "ELEMENT_SET_NO": 999, "REV_AT_EPOCH": 7658, "BSTAR": 0.00019269204, "MEAN_MOTION_DOT": 3.233e-05, "MEAN_MOTION_DDOT": 0}, "tle": {"line1": "1 29228U 06021A   25361.31671594  .00003233  00000+0  19269-3 0  9995", "line2": "2 29228  69.9337  64.1640 0006983 246.1035 113.9400 15.12243621 76581"}}, "geometry": {"type": "Point", "coordinates": [56.41807346944854, -18.195593674985012]}}, {"type": "Feature", "properties": {"norad_id": 29268, "name": "ARIRANG-2 (KOMPSAT-2)", "group": "resource", "lat": -76.65656025971695, "lon": -26.050927121025683, "alt_km": 676.7279284914812, "timestamp": "2025-12-27T15:27:10.799795+00:00", "meta": {"OBJECT_NAME": "ARIRANG-2 (KOMPSAT-2)", "OBJECT_ID": "2006-031A", "EPOCH": "2025-12-27T08:16:24.253824", "MEAN_MOTION": 14.64506792, "ECCENTRICITY": 0.00131329, "INCLINATION": 97.8261, "RA_OF_ASC_NODE": 189.1056, "ARG_OF_PERICENTER": 258.6812, "MEAN_ANOMALY": 224.2162, "EPHEMERIS_TYPE": 0, "CLASSIFICATION_TYPE": "U", "NORAD_CAT_ID": 29268, "ELEMENT_SET_NO": 999, "REV_AT_EPOCH": 3632, "BSTAR": 0.00010011544, "MEAN_MOTION_DOT": 4.86e-06, "MEAN_MOTION_DDOT": 0}, "tle": {"line1": "1 29268U 06031A   25361.34472516  .00000486  00000+0  10012-3 0  9990", "line2": "2 29268  97.8261 189.1056 0013132 258.6812 224.2162 14.64506792 36321"}}, "geometry": {"type": "Point", "coordinates": [-26.050927121025683, -76.65656025971695]}}, {"type": "Feature", "properties": {"norad_id": 29709, "name": "LAPAN-TUBSAT", "group": "resource", "lat": -67.481619183386, "lon": 151.9459726831175, "alt_km": 625.7099744362667, "timestamp": "2025-12-27T15:27:10.799806+00:00", "meta": {"OBJECT_NAME": "LAPAN-TUBSAT", "OBJECT_ID": "2007-001A", "EPOCH": "2025-12-27T06:15:14.518080", "MEAN_MOTION": 14.85692522, "ECCENTRICITY": 0.00130379, "INCLINATION": 98.1269, "RA_OF_ASC_NODE": 351.7164, "ARG_OF_PERICENTER": 30.8211, "MEAN_ANOMALY": 329.3766, "EPHEMERIS_TYPE": 0, "CLASSIFICATION_TYPE": "U", "NORAD_CAT_ID": 29709, "ELEMENT_SET_NO": 999, "REV_AT_EPOCH": 2562, "BSTAR": 0.00013150166, "MEAN_MOTION_DOT": 1.084e-05, "MEAN_MOTION_DDOT": 0}, "tle": {"line1": "1 29709U 07001A   25361.26058470  .00001084  00000+0  13150-3 0  9999", "line2": "2 29709  98.1269 351.7164 0013037  30.8211 329.3766 14.85692522 25625"}}, "geometry": {"type": "Point", "coordinates": [151.9459726831175, -67.481619183386]}}, {"type": "Feature", "properties": {"norad_id": 31113, "name": "HAIYANG-1B", "group": "resource", "lat": 79.10337721918023, "lon": -64.27708995454198, "alt_km": 780.7570732876266, "timestamp": "2025-12-27T15:27:10.799816+00:00", "meta": {"OBJECT_NAME": "HAIYANG-1B", "OBJECT_ID": "2007-010A", "EPOCH": "2025-12-27T04:59:54.758688", "MEAN_MOTION": 14.30969898, "ECCENTRICITY": 0.00134765, "INCLINATION": 98.3331, "RA_OF_ASC_NODE": 344.8896, "ARG_OF_PERICENTER": 356.379, "MEAN_ANOMALY": 3.7294, "EPHEMERIS_TYPE": 0, "CLASSIFICATION_TYPE": "U", "NORAD_CAT_ID": 31113, "ELEMENT_SET_NO": 999, "REV_AT_EPOCH": 97603, "BSTAR": 7.5272376e-05, "MEAN_MOTION_DOT": 1.56e-06, "MEAN_MOTION_DDOT": 0}, "tle": {"line1": "1 31113U 07010A   25361.20827267  .00000156  00000+0  75272-4 0  9996", "line2": "2 31113  98.3331 344.8896 0013476 356.3790   3.7294 14.30969898976031"}}, "geometry": {"type": "Point", "coordinates": [-64.27708995454198, 79.10337721918023]}}, {"type": "Feature", "properties": {"norad_id": 31598, "name": "COSMO-SKYMED 1", "group": "resource", "lat": 27.563851806780953, "lon": -177.00626165040637, "alt_km": 578.0623837273552, "timestamp": "2025-12-27T15:27:10.799827+00:00", "meta": {"OBJECT_NAME": "COSMO-SKYMED 1", "OBJECT_ID": "2007-023A", "EPOCH": "2025-12-27T07:18:06.754176", "MEAN_MOTION": 14.95872577, "ECCENTRICITY": 0.00010951, "INCLINATION": 97.8838, "RA_OF_ASC_NODE": 186.7998, "ARG_OF_PERICENTER": 78.0364, "MEAN_ANOMALY": 282.0979, "EPHEMERIS_TYPE": 0, "CLASSIFICATION_TYPE": "U", "NORAD_CAT_ID": 31598, "ELEMENT_SET_NO": 999, "REV_AT_EPOCH": 408, "BSTAR": 0.00033969969, "MEAN_MOTION_DOT": 3.739e-05, "MEAN_MOTION_DDOT": 0}, "tle": {"line1": "1 31598U 07023A   25361.30424484  .00003739  00000+0  33970-3 0  9990", "line2": "2 31598  97.8838 186.7998 0001095  78.0364 282.0979 14.95872577  4086"}}, "geometry": {"type": "Point", "coordinates": [-177.00626165040637, 27.563851806780953]}}, {"type": "Feature", "properties": {"norad_id": 31698, "name": "TERRASAR-X", "group": "resource", "lat": -33.11816161226824, "lon": -178.08689554252342, "alt_km": 515.5085379446327, "timestamp": "2025-12-27T15:27:10.799838+00:00", "meta": {"OBJECT_NAME": "TERRASAR-X", "OBJECT_ID": "2007-026A", "EPOCH": "2025-12-26T13:13:25.268160", "MEAN_MOTION": 15.19159007, "ECCENTRICITY": 0.0001831, "INCLINATION": 97.4449, "RA_OF_ASC_NODE": 5.7296, "ARG_OF_PERICENTER": 80.7089, "MEAN_ANOMALY": 279.4352, "EPHEMERIS_TYPE": 0, "CLASSIFICATION_TYPE": "U", "NORAD_CAT_ID": 31698, "ELEMENT_SET_NO": 999, "REV_AT_EPOCH": 2701, "BSTAR": 7.4512e-05, "MEAN_MOTION_DOT": 1.498e-05, "MEAN_MOTION_DDOT": 0}, "tle": {"line1": "1 31698U 07026A   25360.55098690  .00001498  00000+0  74512-4 0  9994", "line2": "2 31698  97.4449   5.7296 0001831  80.7089 279.4352 15.19159007 27010"}}, "geometry": {"type": "Point", "coordinates": [-178.08689554252342, -33.11816161226824]}}, {"type": "Feature", "properties": {"norad_id": 32060, "name": "WORLDVIEW-1 (WV-1)", "group": "resource", "lat": 48.21512515034357, "lon": -52.75418368225666, "alt_km": 491.2339263775566, "timestamp": "2025-12-27T15:27:10.799855+00:00", "meta": {"OBJECT_NAME": "WORLDVIEW-1 (WV-1)", "OBJECT_ID": "2007-041A", "EPOCH": "2025-12-27T07:00:01.279008", "MEAN_MOTION": 15.23997296, "ECCENTRICITY": 0.00030075, "INCLINATION": 97.3816, "RA_OF_ASC_NODE": 118.5576, "ARG_OF_PERICENTER": 346.3085, "MEAN_ANOMALY": 13.807, "EPHEMERIS_TYPE": 0, "CLASSIFICATION_TYPE": "U", "NORAD_CAT_ID": 32060, "ELEMENT_SET_NO": 999, "REV_AT_EPOCH": 1669, "BSTAR": 0.0003911353, "MEAN_MOTION_DOT": 9.407e-05, "MEAN_MOTION_DDOT": 0}, "tle": {"line1": "1 32060U 07041A   25361.29168147  .00009407  00000+0  39114-3 0  9998", "line2": "2 32060  97.3816 118.5576 0003007 346.3085  13.8070 15.23997296 16693"}}, "geometry": {"type": "Point", "coordinates": [-52.75418368225666, 48.21512515034357]}}]}